start=new Date('2023-04-08T00:00:00.000Z').valueOf();
sats=[{"MEAN_MOTION":"15.06397633","REF_FRAME":"TEME","PERIOD":"95.592","EPHEMERIS_TYPE":"0","TLE_LINE1":"1 48031U 21024BG  23096.97913780  .00021704  00000-0  14716-2 0  9994","ELEMENT_SET_NO":"999","REV_AT_EPOCH":"11518","TIME_SYSTEM":"UTC","OBJECT_TYPE":"PAYLOAD","ARG_OF_PERICENTER":"79.2178","TLE_LINE2":"2 48031  53.0536 334.7577 0000945  79.2178 280.8917 15.06397633115182","BSTAR":"0.00147160000000","RA_OF_ASC_NODE":"334.7577","CLASSIFICATION_TYPE":"U","OBJECT_NAME":"STARLINK-2267","MEAN_ELEMENT_THEORY":"SGP4","DECAY_DATE":null,"SITE":"AFETR","ECCENTRICITY":"0.00009450","RCS_SIZE":"LARGE","LAUNCH_DATE":"2021-03-24","COUNTRY_CODE":"US","OBJECT_ID":"2021-024BG","SEMIMAJOR_AXIS":"6925.356","INCLINATION":"53.0536","PERIAPSIS":"546.566","MEAN_ANOMALY":"280.8917","CENTER_NAME":"EARTH","GP_ID":"229681748","MEAN_MOTION_DOT":"0.00021704","FILE":"3882626","APOAPSIS":"547.875","MEAN_MOTION_DDOT":"0.0000000000000","NORAD_CAT_ID":"48031","EPOCH":"2023-04-06T23:29:57.505920"},{"OBJECT_ID":"2021-024BJ","SEMIMAJOR_AXIS":"6925.350","LAUNCH_DATE":"2021-03-24","COUNTRY_CODE":"US","RCS_SIZE":"LARGE","DECAY_DATE":null,"ECCENTRICITY":"0.00016840","SITE":"AFETR","MEAN_ELEMENT_THEORY":"SGP4","OBJECT_NAME":"STARLINK-2286","RA_OF_ASC_NODE":"83.0120","CLASSIFICATION_TYPE":"U","EPOCH":"2023-04-07T08:48:34.316640","NORAD_CAT_ID":"48033","APOAPSIS":"548.381","MEAN_MOTION_DDOT":"0.0000000000000","MEAN_MOTION_DOT":"0.00004258","FILE":"3882626","CENTER_NAME":"EARTH","GP_ID":"229681998","PERIAPSIS":"546.049","MEAN_ANOMALY":"262.5206","INCLINATION":"53.0528","OBJECT_TYPE":"PAYLOAD","TIME_SYSTEM":"UTC","TLE_LINE1":"1 48033U 21024BJ  23097.36706385  .00004258  00000-0  30456-3 0  9996","ELEMENT_SET_NO":"999","EPHEMERIS_TYPE":"0","REV_AT_EPOCH":"11376","REF_FRAME":"TEME","MEAN_MOTION":"15.06399500","PERIOD":"95.592","BSTAR":"0.00030456000000","ARG_OF_PERICENTER":"97.5974","TLE_LINE2":"2 48033  53.0528  83.0120 0001684  97.5974 262.5206 15.06399500113766"},{"FILE":"3882825","MEAN_MOTION_DOT":"0.00015970","MEAN_MOTION_DDOT":"0.0000000000000","APOAPSIS":"548.507","NORAD_CAT_ID":"48034","EPOCH":"2023-04-07T15:37:15.898944","PERIAPSIS":"545.970","INCLINATION":"53.0533","MEAN_ANOMALY":"262.2469","GP_ID":"229691199","CENTER_NAME":"EARTH","DECAY_DATE":null,"SITE":"AFETR","ECCENTRICITY":"0.00018320","RCS_SIZE":"LARGE","COUNTRY_CODE":"US","LAUNCH_DATE":"2021-03-24","SEMIMAJOR_AXIS":"6925.374","OBJECT_ID":"2021-024BK","CLASSIFICATION_TYPE":"U","RA_OF_ASC_NODE":"81.7379","OBJECT_NAME":"STARLINK-2288","MEAN_ELEMENT_THEORY":"SGP4","TLE_LINE2":"2 48034  53.0533  81.7379 0001832  97.8728 262.2469 15.06391786113271","ARG_OF_PERICENTER":"97.8728","BSTAR":"0.00108880000000","TIME_SYSTEM":"UTC","OBJECT_TYPE":"PAYLOAD","PERIOD":"95.593","MEAN_MOTION":"15.06391786","REF_FRAME":"TEME","REV_AT_EPOCH":"11327","ELEMENT_SET_NO":"999","TLE_LINE1":"1 48034U 21024BK  23097.65087846  .00015970  00000-0  10888-2 0  9992","EPHEMERIS_TYPE":"0"},{"TIME_SYSTEM":"UTC","OBJECT_TYPE":"PAYLOAD","MEAN_MOTION":"15.06405472","REF_FRAME":"TEME","PERIOD":"95.592","EPHEMERIS_TYPE":"0","TLE_LINE1":"1 48036U 21024BM  23097.39286132  .00010421  00000-0  71736-3 0  9990","ELEMENT_SET_NO":"999","REV_AT_EPOCH":"11376","ARG_OF_PERICENTER":"92.8186","TLE_LINE2":"2 48036  53.0527  82.8955 0001257  92.8186 267.2946 15.06405472113769","BSTAR":"0.00071736000000","ECCENTRICITY":"0.00012570","DECAY_DATE":null,"SITE":"AFETR","RCS_SIZE":"LARGE","LAUNCH_DATE":"2021-03-24","COUNTRY_CODE":"US","OBJECT_ID":"2021-024BM","SEMIMAJOR_AXIS":"6925.332","RA_OF_ASC_NODE":"82.8955","CLASSIFICATION_TYPE":"U","OBJECT_NAME":"STARLINK-2295","MEAN_ELEMENT_THEORY":"SGP4","MEAN_MOTION_DOT":"0.00010421","FILE":"3882626","APOAPSIS":"548.067","MEAN_MOTION_DDOT":"0.0000000000000","NORAD_CAT_ID":"48036","EPOCH":"2023-04-07T09:25:43.218048","PERIAPSIS":"546.326","INCLINATION":"53.0527","MEAN_ANOMALY":"267.2946","CENTER_NAME":"EARTH","GP_ID":"229682996"},{"BSTAR":"0.00172750000000","ARG_OF_PERICENTER":"95.9423","TLE_LINE2":"2 48092  53.0565 207.8562 0001034  95.9423 264.1683 15.06411712112607","EPHEMERIS_TYPE":"0","TLE_LINE1":"1 48092U 21027A   23097.46430812  .00025551  00000-0  17275-2 0  9996","ELEMENT_SET_NO":"999","REV_AT_EPOCH":"11260","REF_FRAME":"TEME","MEAN_MOTION":"15.06411712","PERIOD":"95.591","OBJECT_TYPE":"PAYLOAD","TIME_SYSTEM":"UTC","CENTER_NAME":"EARTH","GP_ID":"229682505","PERIAPSIS":"546.462","INCLINATION":"53.0565","MEAN_ANOMALY":"264.1683","EPOCH":"2023-04-07T11:08:36.221568","NORAD_CAT_ID":"48092","APOAPSIS":"547.894","MEAN_MOTION_DDOT":"0.0000000000000","MEAN_MOTION_DOT":"0.00025551","FILE":"3882626","MEAN_ELEMENT_THEORY":"SGP4","OBJECT_NAME":"STARLINK-2048","RA_OF_ASC_NODE":"207.8562","CLASSIFICATION_TYPE":"U","OBJECT_ID":"2021-027A","SEMIMAJOR_AXIS":"6925.313","LAUNCH_DATE":"2021-04-07","COUNTRY_CODE":"US","RCS_SIZE":"LARGE","DECAY_DATE":null,"SITE":"AFETR","ECCENTRICITY":"0.00010340"},{"PERIAPSIS":"546.416","MEAN_ANOMALY":"303.2913","INCLINATION":"53.0538","CENTER_NAME":"EARTH","GP_ID":"229689596","FILE":"3882709","MEAN_MOTION_DOT":"0.00025515","MEAN_MOTION_DDOT":"0.0000000000000","APOAPSIS":"547.838","NORAD_CAT_ID":"48093","EPOCH":"2023-04-07T18:12:32.912064","CLASSIFICATION_TYPE":"U","RA_OF_ASC_NODE":"271.4558","OBJECT_NAME":"STARLINK-2404","MEAN_ELEMENT_THEORY":"SGP4","DECAY_DATE":null,"SITE":"AFETR","ECCENTRICITY":"0.00010270","RCS_SIZE":"LARGE","COUNTRY_CODE":"US","LAUNCH_DATE":"2021-04-07","SEMIMAJOR_AXIS":"6925.262","OBJECT_ID":"2021-027B","TLE_LINE2":"2 48093  53.0538 271.4558 0001027  56.8174 303.2913 15.06428167111344","ARG_OF_PERICENTER":"56.8174","BSTAR":"0.00172430000000","PERIOD":"95.590","MEAN_MOTION":"15.06428167","REF_FRAME":"TEME","REV_AT_EPOCH":"11134","TLE_LINE1":"1 48093U 21027B   23097.75871426  .00025515  00000-0  17243-2 0  9994","ELEMENT_SET_NO":"999","EPHEMERIS_TYPE":"0","TIME_SYSTEM":"UTC","OBJECT_TYPE":"PAYLOAD"},{"CLASSIFICATION_TYPE":"U","RA_OF_ASC_NODE":"282.3677","OBJECT_NAME":"STARLINK-2412","MEAN_ELEMENT_THEORY":"SGP4","DECAY_DATE":null,"ECCENTRICITY":"0.00010240","SITE":"AFETR","RCS_SIZE":"LARGE","COUNTRY_CODE":"US","LAUNCH_DATE":"2021-04-07","SEMIMAJOR_AXIS":"6925.322","OBJECT_ID":"2021-027C","INCLINATION":"53.0537","PERIAPSIS":"546.478","MEAN_ANOMALY":"293.5418","CENTER_NAME":"EARTH","GP_ID":"229683503","FILE":"3882626","MEAN_MOTION_DOT":"0.00020666","MEAN_MOTION_DDOT":"0.0000000000000","APOAPSIS":"547.896","NORAD_CAT_ID":"48094","EPOCH":"2023-04-07T12:15:34.219008","PERIOD":"95.592","REF_FRAME":"TEME","MEAN_MOTION":"15.06408686","REV_AT_EPOCH":"11157","TLE_LINE1":"1 48094U 21027C   23097.51081272  .00020666  00000-0  14019-2 0  9991","ELEMENT_SET_NO":"999","EPHEMERIS_TYPE":"0","TIME_SYSTEM":"UTC","OBJECT_TYPE":"PAYLOAD","TLE_LINE2":"2 48094  53.0537 282.3677 0001024  66.5679 293.5418 15.06408686111572","ARG_OF_PERICENTER":"66.5679","BSTAR":"0.00140190000000"},{"SEMIMAJOR_AXIS":"6925.262","OBJECT_ID":"2021-027D","COUNTRY_CODE":"US","LAUNCH_DATE":"2021-04-07","RCS_SIZE":"MEDIUM","ECCENTRICITY":"0.00006200","DECAY_DATE":null,"SITE":"AFETR","MEAN_ELEMENT_THEORY":"SGP4","OBJECT_NAME":"STARLINK-2414","CLASSIFICATION_TYPE":"U","RA_OF_ASC_NODE":"281.1459","EPOCH":"2023-04-07T18:48:20.251008","NORAD_CAT_ID":"48095","MEAN_MOTION_DDOT":"0.0000000000000","APOAPSIS":"547.556","FILE":"3882689","MEAN_MOTION_DOT":"0.00022995","CENTER_NAME":"EARTH","GP_ID":"229689105","INCLINATION":"53.0543","PERIAPSIS":"546.698","MEAN_ANOMALY":"285.7767","OBJECT_TYPE":"PAYLOAD","TIME_SYSTEM":"UTC","REV_AT_EPOCH":"11121","ELEMENT_SET_NO":"999","TLE_LINE1":"1 48095U 21027D   23097.78356772  .00022995  00000-0  15564-2 0  9994","EPHEMERIS_TYPE":"0","PERIOD":"95.590","REF_FRAME":"TEME","MEAN_MOTION":"15.06428283","BSTAR":"0.00155640000000","TLE_LINE2":"2 48095  53.0543 281.1459 0000620  74.3290 285.7767 15.06428283111218","ARG_OF_PERICENTER":"74.3290"},{"GP_ID":"229692286","CENTER_NAME":"EARTH","MEAN_ANOMALY":"293.5393","PERIAPSIS":"546.274","INCLINATION":"53.0521","NORAD_CAT_ID":"48096","EPOCH":"2023-04-07T15:00:06.512832","MEAN_MOTION_DOT":"0.00021687","FILE":"3882809","APOAPSIS":"548.039","MEAN_MOTION_DDOT":"0.0000000000000","OBJECT_NAME":"STARLINK-2417","MEAN_ELEMENT_THEORY":"SGP4","RA_OF_ASC_NODE":"281.8581","CLASSIFICATION_TYPE":"U","LAUNCH_DATE":"2021-04-07","COUNTRY_CODE":"US","OBJECT_ID":"2021-027E","SEMIMAJOR_AXIS":"6925.292","ECCENTRICITY":"0.00012740","DECAY_DATE":null,"SITE":"AFETR","RCS_SIZE":"LARGE","ARG_OF_PERICENTER":"66.5730","TLE_LINE2":"2 48096  53.0521 281.8581 0001274  66.5730 293.5393 15.06418528111185","BSTAR":"0.00146960000000","ELEMENT_SET_NO":"999","TLE_LINE1":"1 48096U 21027E   23097.62507538  .00021687  00000-0  14696-2 0  9998","EPHEMERIS_TYPE":"0","REV_AT_EPOCH":"11118","MEAN_MOTION":"15.06418528","REF_FRAME":"TEME","PERIOD":"95.591","OBJECT_TYPE":"PAYLOAD","TIME_SYSTEM":"UTC"},{"BSTAR":"0.00161020000000","TLE_LINE2":"2 48097  53.0526 261.9436 0001047  56.0337 304.0751 15.06421491111464","ARG_OF_PERICENTER":"56.0337","OBJECT_TYPE":"PAYLOAD","TIME_SYSTEM":"UTC","REV_AT_EPOCH":"11146","TLE_LINE1":"1 48097U 21027F   23097.60479931  .00023798  00000-0  16102-2 0  9991","EPHEMERIS_TYPE":"0","ELEMENT_SET_NO":"999","PERIOD":"95.591","MEAN_MOTION":"15.06421491","REF_FRAME":"TEME","EPOCH":"2023-04-07T14:30:54.660384","NORAD_CAT_ID":"48097","MEAN_MOTION_DDOT":"0.0000000000000","APOAPSIS":"547.873","FILE":"3882748","MEAN_MOTION_DOT":"0.00023798","GP_ID":"229690938","CENTER_NAME":"EARTH","PERIAPSIS":"546.423","MEAN_ANOMALY":"304.0751","INCLINATION":"53.0526","SEMIMAJOR_AXIS":"6925.283","OBJECT_ID":"2021-027F","COUNTRY_CODE":"US","LAUNCH_DATE":"2021-04-07","RCS_SIZE":"LARGE","ECCENTRICITY":"0.00010470","DECAY_DATE":null,"SITE":"AFETR","MEAN_ELEMENT_THEORY":"SGP4","OBJECT_NAME":"STARLINK-2418","CLASSIFICATION_TYPE":"U","RA_OF_ASC_NODE":"261.9436"}];
